#aV2019 10 12  0  0  0.00000000     288 DD+AD WGS84 FIT  NGA
## 2074 518400.00000000   300.00000000 58768 0.0000000000000
+   31     1  2  3  5  6  7  8  9 10 11 12 13 14 15 16 17 18
+         19 20 21 22 23 24 25 26 27 28 29 30 31 32  0  0  0
+          0  0  0  0  0  0  0  0  0  0  0  0  0  0  0  0  0
+          0  0  0  0  0  0  0  0  0  0  0  0  0  0  0  0  0
+          0  0  0  0  0  0  0  0  0  0  0  0  0  0  0  0  0
++         2  2  2  2  2  2  2  2  2  2  2  2  2  2  2  2  2
++         2  2  2  2  2  2  2  2  2  2  2  2  2  2  0  0  0
++         0  0  0  0  0  0  0  0  0  0  0  0  0  0  0  0  0
++         0  0  0  0  0  0  0  0  0  0  0  0  0  0  0  0  0
++         0  0  0  0  0  0  0  0  0  0  0  0  0  0  0  0  0
%c cc cc ccc ccc cccc cccc cccc cccc ccccc ccccc ccccc ccccc
%c cc cc ccc ccc cccc cccc cccc cccc ccccc ccccc ccccc ccccc
%f  0.0000000  0.000000000  0.00000000000  0.000000000000000
%f  0.0000000  0.000000000  0.00000000000  0.000000000000000
%i    0    0    0    0      0      0      0      0         0
%i    0    0    0    0      0      0      0      0         0
/*      NGA, ST. LOUIS,MO.                                  
/*   EPHEMERIS COMPUTED FROM 2 DAYS OF DATA                 
/*   EPOCHA v5 SMOOTHER                                     
/*   G1762 IERS2010 SATAF SATAPC                            
*  2019 10 12 10 15  0.00000000
P  1  15334.374379    403.763876  21517.866285   -159.854232                    
V  1   7948.736258  26549.757699  -5799.272146     -0.132689                    
P  2 -14490.881149 -20339.028250  -8601.903879   -324.242364                    
V  2  -1717.249691 -11953.751523  28953.418493     -0.079491                    
P  3  21048.984603 -10367.854191  12302.453246    -21.433367                    
V  3  -8892.461285  13198.412808  26298.815418     -0.047745                    
P  5 -13242.682672  -8302.003921 -21625.811629     -2.253901                    
V  5  17596.488939 -20683.669457  -2657.526837     -0.003797                    
P  6  -5590.002033 -25687.854905   3729.521658    -87.767652                    
V  6   3615.025490   3754.273386  31658.265986     -0.128990                    
P  7   8751.653998 -16364.071595 -18536.822606   -125.450097                    
V  7   8836.738728  22725.292334 -16123.559491     -0.080074                    
P  8  26173.002121   5151.715208    281.254230     -9.641731                    
V  8   -159.313140   2347.256457 -31827.397266     -0.012624                    
P  9  17240.859411  -9465.416328 -17900.468173    -54.637189                    
V  9  21855.772631   6203.944191  17810.565473     -0.100626                    
P 10  -8219.575051  21902.343620  12427.812487    -90.875667                    
V 10 -12360.957421  10065.341959 -26256.692263     -0.154471                    
P 11  19676.799977   1371.613333  17137.158676   -480.487046                    
V 11  13913.138153  18598.370898 -17263.303468      0.112606                    
P 12 -20619.320689   5284.305785  15565.592076    194.852317                    
V 12  13415.201436 -15172.225620  22768.498651     -0.038827                    
P 13 -21901.160427 -13188.732790  -7447.061610    -39.304317                    
V 13   9526.875180    880.968144 -29982.680951      0.021543                    
P 14  11165.045215  16513.785972  17969.281607    -56.546452                    
V 14 -21557.367130  -5062.743178  18202.529097      0.020366                    
P 15 -26623.331651  -2681.225788    615.857276   -280.463590                    
V 15   -694.783726  -3607.131386 -30761.402074      0.027164                    
P 16  10572.024477  10456.334052 -22202.223868    -82.555049                    
V 16 -20460.457517  18623.584395   -556.362474     -0.035966                    
P 17   -752.102246 -15406.364065  22049.989426    142.735451                    
V 17  26018.099223   6927.751432   5759.939897      0.070381                    
P 18  16920.037997   9249.409350  17802.732866     92.470580                    
V 18   6685.355803  22710.642190 -17561.007083      0.027660                    
P 19  -8232.944353 -16126.245081  19126.265809   -254.816027                    
V 19  23987.982941   6680.374156  15739.923875      0.052291                    
P 20 -13877.791004  22418.221296   2110.581423    527.175748                    
V 20  -4814.097026     69.651245 -31055.551087      0.001125                    
P 21  -4069.164540  20522.501048 -15686.051171   -103.691619                    
V 21  -9811.883482 -19077.397412 -21166.402804      0.062004                    
P 22  19612.306844  -3580.214216  17723.111172   -763.228413                    
V 22 -11970.488916  18845.573633  17362.463669     -0.032518                    
P 23  24919.566295  -1882.438338  -9203.775216   -161.877865                    
V 23  11307.133876   5091.708201  28122.250388      0.021435                    
P 24 -16835.017118  -2341.879565  20317.455858     -3.351156                    
V 24  -8414.851850 -24807.649306  -9406.121262     -0.004922                    
P 25 -19508.891988  17348.686429   3851.573636    -15.152761                    
V 25   1452.842968  -5705.445997  31584.416959     -0.010028                    
P 26   2669.278953  18034.236220 -19265.176354     59.726727                    
V 26 -17171.145992  17584.313226  14281.444838      0.086093                    
P 27  20845.342258  12340.710942 -11352.499542    -85.008111                    
V 27 -14140.969210  -1362.247895 -27427.060793     -0.122406                    
P 28   9405.802765 -21106.811814  13799.170738    759.314761                    
V 28  13141.520620  -9981.416550 -25246.995853     -0.014000                    
P 29 -19264.823322   6278.198496 -17218.960769     73.410667                    
V 29 -20526.678506  -7247.641466  20336.572064     -0.102262                    
P 30   1379.518779 -24192.906733 -10612.787649    -59.918256                    
V 30   6684.194126  12299.044706 -27277.735468     -0.081916                    
P 31   6292.902459  25507.069580   1432.377262      4.206076                    
V 31  -3650.067176   -883.141121  31945.372368     -0.025675                    
P 32   1517.680113  15737.344764  21418.308881     88.678449                    
V 32 -26556.483269  -5151.098694   5557.651938      0.129852                    
EOF
